NORAD_CAT_ID,OBJECT_NAME,OBJECT_TYPE,EPOCH,MEAN_MOTION,ECCENTRICITY,INCLINATION,RA_OF_ASC_NODE,ARG_OF_PERICENTER,MEAN_ANOMALY,BSTAR,MEAN_MOTION_DOT,MEAN_MOTION_DDOT,TLE_LINE0,TLE_LINE1,TLE_LINE2,SEMIMAJOR_AXIS,PERIOD,APOGEE,PERIGEE,DECAYED
49157.0,STARLINK-3051,PAYLOAD,2023-06-05 18:43:15,14.98331965,0.0003225,69.9992,295.7449,272.2537,87.8252,1.1844e-05,4.8e-07,0.0,0 STARLINK-3051,1 49157U 21082AD  23156.78004141  .00000048  00000-0  11844-4 0  9995,2 49157  69.9992 295.7449 0003225 272.2537  87.8252 14.98331965 96592,6950.187,96.107,574.293,569.81,0.0
49157.0,STARLINK-3051,PAYLOAD,2023-06-06 12:20:44,14.98327364,0.0003206,69.9993,293.8935,272.1793,87.8999,-2.0819e-05,-3.41e-06,0.0,0 STARLINK-3051,1 49157U 21082AD  23157.51440525 -.00000341  00000-0 -20819-4 0  9997,2 49157  69.9993 293.8935 0003206 272.1793  87.8999 14.98327364 96703,6950.201,96.107,574.294,569.838,0.0
49157.0,STARLINK-3051,PAYLOAD,2023-06-06 15:33:00,14.98328737,0.0003284,69.9992,293.5566,273.0012,87.0771,-2.2214e-05,-3.58e-06,0.0,0 STARLINK-3051,1 49157U 21082AD  23157.64792454 -.00000358  00000-0 -22214-4 0  9991,2 49157  69.9992 293.5566 0003284 273.0012  87.0771 14.98328737 96726,6950.197,96.107,574.344,569.779,0.0
49157.0,STARLINK-3051,PAYLOAD,2023-06-06 18:45:16,14.98330481,0.0003209,69.9995,293.2203,272.4794,87.5998,4.3182e-06,-4.2e-07,0.0,0 STARLINK-3051,1 49157U 21082AD  23157.78144280 -.00000042  00000-0  43182-5 0  9991,2 49157  69.9995 293.2203 0003209 272.4794  87.5998 14.98330481 96748,6950.191,96.107,574.287,569.826,0.0
49157.0,STARLINK-3051,PAYLOAD,2023-06-07 09:10:29,14.98328267,0.0003259,69.9993,291.7047,272.9268,87.1518,1.4346e-05,7.8e-07,0.0,0 STARLINK-3051,1 49157U 21082AD  23158.38228402  .00000078  00000-0  14346-4 0  9994,2 49157  69.9993 291.7047 0003259 272.9268  87.1518 14.98328267 96834,6950.198,96.107,574.328,569.798,0.0
49157.0,STARLINK-3051,PAYLOAD,2023-06-07 18:47:17,14.98332737,0.0003241,69.9994,290.6941,272.4746,87.6042,4.8559e-05,4.86e-06,0.0,0 STARLINK-3051,1 49157U 21082AD  23158.78284022  .00000486  00000-0  48559-4 0  9994,2 49157  69.9994 290.6941 0003241 272.4746  87.6042 14.98332737 96893,6950.184,96.107,574.302,569.797,0.0
49157.0,STARLINK-3051,PAYLOAD,2023-06-08 12:24:46,14.98330317,0.0003219,69.9994,288.8418,272.507,87.5721,6.8401e-05,7.23e-06,0.0,0 STARLINK-3051,1 49157U 21082AD  23159.51720076  .00000723  00000-0  68401-4 0  9992,2 49157  69.9994 288.8418 0003219 272.5070  87.5721 14.98330317 97006,6950.192,96.107,574.294,569.82,0.0
49157.0,STARLINK-3051,PAYLOAD,2023-06-08 15:37:02,14.98334195,0.0003238,69.9994,288.5057,272.4452,87.6337,7.8879e-05,8.48e-06,0.0,0 STARLINK-3051,1 49157U 21082AD  23159.65071782  .00000848  00000-0  78879-4 0  9998,2 49157  69.9994 288.5057 0003238 272.4452  87.6337 14.98334195 97020,6950.18,96.107,574.295,569.794,0.0
49157.0,STARLINK-3051,PAYLOAD,2023-06-08 18:49:18,14.98334422,0.0003247,69.9995,288.1691,272.6035,87.4753,7.8261e-05,8.41e-06,0.0,0 STARLINK-3051,1 49157U 21082AD  23159.78423743  .00000841  00000-0  78261-4 0  9998,2 49157  69.9995 288.1691 0003247 272.6035  87.4753 14.98334422 97045,6950.179,96.107,574.301,569.787,0.0
49157.0,STARLINK-3051,PAYLOAD,2023-06-09 09:14:30,14.98332625,0.0003236,69.9995,286.6543,271.4904,88.5885,7.3766e-06,-5e-08,0.0,0 STARLINK-3051,1 49157U 21082AD  23160.38507947 -.00000005  00000-0  73766-5 0  9994,2 49157  69.9995 286.6543 0003236 271.4904  88.5885 14.98332625 97135,6950.185,96.107,574.299,569.801,0.0
49157.0,STARLINK-3051,PAYLOAD,2023-06-09 15:39:03,14.98333318,0.0003236,69.9994,285.981,271.3418,88.737,1.5008e-05,8.6e-07,0.0,0 STARLINK-3051,1 49157U 21082AD  23160.65211828  .00000086  00000-0  15008-4 0  9996,2 49157  69.9994 285.9810 0003236 271.3418  88.7370 14.98333318 97177,6950.183,96.107,574.297,569.799,0.0
49157.0,STARLINK-3051,PAYLOAD,2023-06-10 01:15:51,14.98331251,0.0003207,69.9994,284.971,270.7594,89.3197,-3.2826e-06,-1.32e-06,0.0,0 STARLINK-3051,1 49157U 21082AD  23161.05267889 -.00000132  00000-0 -32826-5 0  9991,2 49157  69.9994 284.9710 0003207 270.7594  89.3197 14.98331251 97236,6950.189,96.107,574.283,569.825,0.0
49157.0,STARLINK-3051,PAYLOAD,2023-06-10 14:04:55,14.98330789,0.0003166,69.9996,283.6249,268.4807,91.5989,-2.2532e-05,-3.62e-06,0.0,0 STARLINK-3051,1 49157U 21082AD  23161.58675924 -.00000362  00000-0 -22532-4 0  9999,2 49157  69.9996 283.6249 0003166 268.4807  91.5989 14.98330789 97314,6950.19,96.107,574.256,569.855,0.0
49157.0,STARLINK-3051,PAYLOAD,2023-06-11 02:54:00,14.98330247,0.0003166,69.9996,282.2784,266.9841,93.0956,-6.9633e-06,-1.76e-06,0.0,0 STARLINK-3051,1 49157U 21082AD  23162.12083884 -.00000176  00000-0 -69633-5 0  9995,2 49157  69.9996 282.2784 0003166 266.9841  93.0956 14.98330247 97392,6950.192,96.107,574.258,569.857,0.0
49157.0,STARLINK-3051,PAYLOAD,2023-06-11 14:06:57,14.98327601,0.0003328,69.9992,281.0999,269.6708,90.407,-5.3767e-05,-7.35e-06,0.0,0 STARLINK-3051,1 49157U 21082AD  23162.58816236 -.00000735  00000-0 -53767-4 0  9991,2 49157  69.9992 281.0999 0003328 269.6708  90.4070 14.98327601 97461,6950.2,96.107,574.378,569.752,0.0
49157.0,STARLINK-3051,PAYLOAD,2023-06-11 20:31:29,14.9833256,0.0003328,69.9991,280.4264,270.1138,89.964,4.8815e-06,-3.5e-07,0.0,0 STARLINK-3051,1 49157U 21082AD  23162.85519769 -.00000035  00000-0  48815-5 0  9993,2 49157  69.9991 280.4264 0003328 270.1138  89.9640 14.98332560 97503,6950.185,96.107,574.363,569.737,0.0
49157.0,STARLINK-3051,PAYLOAD,2023-06-12 07:44:25,14.98324582,0.0003443,69.9993,279.2471,269.4773,90.5992,4.0508e-05,3.9e-06,0.0,0 STARLINK-3051,1 49157U 21082AD  23163.32252155  .00000390  00000-0  40508-4 0  9992,2 49157  69.9993 279.2471 0003443 269.4773  90.5992 14.98324582 97575,6950.21,96.107,574.468,569.682,0.0
49157.0,STARLINK-3051,PAYLOAD,2023-06-12 14:08:57,14.98329204,0.0003221,69.9996,278.5732,266.6907,93.3884,5.2478e-05,5.33e-06,0.0,0 STARLINK-3051,1 49157U 21082AD  23163.58955898  .00000533  00000-0  52478-4 0  9992,2 49157  69.9996 278.5732 0003221 266.6907  93.3884 14.98329204 97614,6950.195,96.107,574.299,569.822,0.0
49157.0,STARLINK-3051,PAYLOAD,2023-06-13 01:21:54,14.98329265,0.0003374,69.9993,277.3959,270.7906,89.2867,4.0879e-05,3.95e-06,0.0,0 STARLINK-3051,1 49157U 21082AD  23164.05687971  .00000395  00000-0  40879-4 0  9997,2 49157  69.9993 277.3959 0003374 270.7906  89.2867 14.98329265 97682,6950.195,96.107,574.405,569.715,0.0
49157.0,STARLINK-3051,PAYLOAD,2023-06-13 10:58:42,14.98324374,0.0003526,69.9988,276.3857,268.4468,91.6287,8.1471e-05,8.79e-06,0.0,0 STARLINK-3051,1 49157U 21082AD  23164.45744158  .00000879  00000-0  81471-4 0  9992,2 49157  69.9988 276.3857 0003526 268.4468  91.6287 14.98324374 97744,6950.21,96.107,574.526,569.625,0.0
49157.0,STARLINK-3051,PAYLOAD,2023-06-14 06:12:19,14.98333144,0.000352,69.9993,274.367,265.1606,94.9151,5.899e-05,6.11e-06,0.0,0 STARLINK-3051,1 49157U 21082AD  23165.25855509  .00000611  00000-0  58990-4 0  9998,2 49157  69.9993 274.3670 0003520 265.1606  94.9151 14.98333144 97867,6950.183,96.107,574.495,569.602,0.0
49157.0,STARLINK-3051,PAYLOAD,2023-06-14 19:01:23,14.98333681,0.0003384,69.9991,273.0204,270.928,89.1492,3.392e-05,3.12e-06,0.0,0 STARLINK-3051,1 49157U 21082AD  23165.79263580  .00000312  00000-0  33920-4 0  9993,2 49157  69.9991 273.0204 0003384 270.9280  89.1492 14.98333681 97943,6950.182,96.107,574.398,569.695,0.0
49157.0,STARLINK-3051,PAYLOAD,2023-06-15 09:26:36,14.98334503,0.0002843,70.0002,271.5061,276.6279,83.4556,-0.00014136,-1.779e-05,0.0,0 STARLINK-3051,1 49157U 21082AD  23166.39348160 -.00001779  00000-0 -14136-3 0  9995,2 49157  70.0002 271.5061 0002843 276.6279  83.4556 14.98334503 98036,6950.179,96.107,574.02,570.068,0.0
49157.0,STARLINK-3051,PAYLOAD,2023-06-15 12:38:52,14.98333177,0.0002879,69.9995,271.1687,275.1129,84.9702,-0.00010703,-1.37e-05,0.0,0 STARLINK-3051,1 49157U 21082AD  23166.52700110 -.00001370  00000-0 -10703-3 0  9990,2 49157  69.9995 271.1687 0002879 275.1129  84.9702 14.98333177 98058,6950.183,96.107,574.049,570.047,0.0
49157.0,STARLINK-3051,PAYLOAD,2023-06-15 17:27:16,14.98358744,0.0002489,69.9995,270.6632,263.7463,96.3412,-0.00047565,-5.768e-05,0.0,0 STARLINK-3051,1 49157U 21082AD  23166.72727219 -.00005768  00000-0 -47565-3 0  9992,2 49157  69.9995 270.6632 0002489 263.7463  96.3412 14.98358744 98088,6950.104,96.105,573.699,570.239,0.0
49157.0,STARLINK-3051,PAYLOAD,2023-06-15 23:51:48,14.98332725,0.0003304,69.9992,269.9895,270.819,89.259,-5.7184e-06,-1.61e-06,0.0,0 STARLINK-3051,1 49157U 21082AD  23166.99431698 -.00000161  00000-0 -57184-5 0  9996,2 49157  69.9992 269.9895 0003304 270.8190  89.2590 14.98332725 98124,6950.184,96.107,574.346,569.753,0.0
49157.0,STARLINK-3051,PAYLOAD,2023-06-16 09:28:36,14.98338669,0.0003351,69.9989,268.9794,269.0839,90.9936,6.4906e-05,6.82e-06,0.0,0 STARLINK-3051,1 49157U 21082AD  23167.39486978  .00000682  00000-0  64906-4 0  9997,2 49157  69.9989 268.9794 0003351 269.0839  90.9936 14.98338669 98181,6950.166,96.106,574.36,569.702,0.0
49157.0,STARLINK-3051,PAYLOAD,2023-06-16 12:40:52,14.98340003,0.0003319,69.9991,268.6428,269.5461,90.5318,8.1877e-05,8.84e-06,0.0,0 STARLINK-3051,1 49157U 21082AD  23167.52838789  .00000884  00000-0  81877-4 0  9993,2 49157  69.9991 268.6428 0003319 269.5461  90.5318 14.98340003 98203,6950.162,96.106,574.334,569.72,0.0
49157.0,STARLINK-3051,PAYLOAD,2023-06-16 19:05:24,14.98345366,0.0003325,69.999,267.9693,270.2881,89.7897,0.00018423,2.107e-05,0.0,0 STARLINK-3051,1 49157U 21082AD  23167.79541944  .00002107  00000-0  18423-3 0  9992,2 49157  69.9990 267.9693 0003325 270.2881  89.7897 14.98345366 98243,6950.145,96.106,574.321,569.699,0.0
49157.0,STARLINK-3051,PAYLOAD,2023-06-16 23:53:49,14.98324692,0.0003548,69.9992,267.4646,267.766,92.3093,-4.9886e-05,-6.88e-06,0.0,0 STARLINK-3051,1 49157U 21082AD  23167.99571659 -.00000688  00000-0 -49886-4 0  9992,2 49157  69.9992 267.4646 0003548 267.7660  92.3093 14.98324692 98271,6950.209,96.107,574.54,569.608,0.0
